{
  "type": "FeatureCollection",
  "features": [
    {
      "type": "Feature",
      "properties": {
        "norad_id": 34343,
        "name": "COSMOS 2251 DEB",
        "group": "cosmos-2251-debris",
        "lat": 29.796554050151876,
        "lon": -125.50171833347186,
        "alt_km": 677.5216344845312,
        "timestamp": "2025-12-25T22:42:17.407200+00:00",
        "meta_object_name": "COSMOS 2251 DEB",
        "meta_object_id": "1993-036PR",
        "meta_epoch": "2025-12-25T14:24:03.104352",
        "meta_mean_motion": 14.69629418,
        "meta_eccentricity": 0.0024459,
        "meta_inclination": 74.0197,
        "meta_ra_of_asc_node": 64.6137,
        "meta_arg_of_pericenter": 335.597,
        "meta_mean_anomaly": 143.3428,
        "meta_ephemeris_type": 0,
        "meta_classification_type": "U",
        "meta_norad_cat_id": 34343,
        "meta_element_set_no": 999,
        "meta_rev_at_epoch": 88919,
        "meta_bstar": 0.0013766,
        "meta_mean_motion_dot": 8.202e-05,
        "meta_mean_motion_ddot": 0,
        "tle_line1": "1 34343U 93036PR  25359.60003593  .00008202  00000+0  13766-2 0  9994",
        "tle_line2": "2 34343  74.0197  64.6137 0024459 335.5970 143.3428 14.69629418889190"
      },
      "geometry": {
        "type": "Point",
        "coordinates": [
          -125.50171833347186,
          29.796554050151876
        ]
      }
    },
    {
      "type": "Feature",
      "properties": {
        "norad_id": 34344,
        "name": "COSMOS 2251 DEB",
        "group": "cosmos-2251-debris",
        "lat": -63.0345399896475,
        "lon": -58.8394479697941,
        "alt_km": 737.7987650703753,
        "timestamp": "2025-12-25T22:42:17.407211+00:00",
        "meta_object_name": "COSMOS 2251 DEB",
        "meta_object_id": "1993-036PS",
        "meta_epoch": "2025-12-20T16:41:07.998144",
        "meta_mean_motion": 14.16466858,
        "meta_eccentricity": 0.01566321,
        "meta_inclination": 73.9786,
        "meta_ra_of_asc_node": 96.1449,
        "meta_arg_of_pericenter": 278.7098,
        "meta_mean_anomaly": 204.8003,
        "meta_ephemeris_type": 0,
        "meta_classification_type": "U",
        "meta_norad_cat_id": 34344,
        "meta_element_set_no": 999,
        "meta_rev_at_epoch": 86209,
        "meta_bstar": 0.0013151537,
        "meta_mean_motion_dot": 2.924e-05,
        "meta_mean_motion_ddot": 0,
        "tle_line1": "1 34344U 93036PS  25354.69523146  .00002924  00000+0  13152-2 0  9994",
        "tle_line2": "2 34344  73.9786  96.1449 0156632 278.7098 204.8003 14.16466858862098"
      },
      "geometry": {
        "type": "Point",
        "coordinates": [
          -58.8394479697941,
          -63.0345399896475
        ]
      }
    },
    {
      "type": "Feature",
      "properties": {
        "norad_id": 34346,
        "name": "COSMOS 2251 DEB",
        "group": "cosmos-2251-debris",
        "lat": -67.83465478331011,
        "lon": -115.46293755785385,
        "alt_km": 1051.5978206485388,
        "timestamp": "2025-12-25T22:42:17.407221+00:00",
        "meta_object_name": "COSMOS 2251 DEB",
        "meta_object_id": "1993-036PU",
        "meta_epoch": "2025-12-24T19:46:25.139712",
        "meta_mean_motion": 13.99731331,
        "meta_eccentricity": 0.0206198,
        "meta_inclination": 73.9946,
        "meta_ra_of_asc_node": 291.2772,
        "meta_arg_of_pericenter": 107.3009,
        "meta_mean_anomaly": 286.0021,
        "meta_ephemeris_type": 0,
        "meta_classification_type": "U",
        "meta_norad_cat_id": 34346,
        "meta_element_set_no": 999,
        "meta_rev_at_epoch": 85579,
        "meta_bstar": 0.00097331009,
        "meta_mean_motion_dot": 1.689e-05,
        "meta_mean_motion_ddot": 0,
        "tle_line1": "1 34346U 93036PU  25358.82390208  .00001689  00000+0  97331-3 0  9995",
        "tle_line2": "2 34346  73.9946 291.2772 0206198 107.3009 286.0021 13.99731331855799"
      },
      "geometry": {
        "type": "Point",
        "coordinates": [
          -115.46293755785385,
          -67.83465478331011
        ]
      }
    },
    {
      "type": "Feature",
      "properties": {
        "norad_id": 34383,
        "name": "COSMOS 2251 DEB",
        "group": "cosmos-2251-debris",
        "lat": -55.08198323468374,
        "lon": -113.8005595585108,
        "alt_km": 542.5351257149487,
        "timestamp": "2025-12-25T22:42:17.407231+00:00",
        "meta_object_name": "COSMOS 2251 DEB",
        "meta_object_id": "1993-036PY",
        "meta_epoch": "2025-12-24T20:15:39.275712",
        "meta_mean_motion": 15.10109025,
        "meta_eccentricity": 0.00029762,
        "meta_inclination": 74.0196,
        "meta_ra_of_asc_node": 272.7129,
        "meta_arg_of_pericenter": 43.5305,
        "meta_mean_anomaly": 30.393,
        "meta_ephemeris_type": 0,
        "meta_classification_type": "U",
        "meta_norad_cat_id": 34383,
        "meta_element_set_no": 999,
        "meta_rev_at_epoch": 89296,
        "meta_bstar": 0.0032579533,
        "meta_mean_motion_dot": 0.00053476,
        "meta_mean_motion_ddot": 0,
        "tle_line1": "1 34383U 93036PY  25358.84420458  .00053476  00000+0  32580-2 0  9994",
        "tle_line2": "2 34383  74.0196 272.7129 0002976  43.5305  30.3930 15.10109025892960"
      },
      "geometry": {
        "type": "Point",
        "coordinates": [
          -113.8005595585108,
          -55.08198323468374
        ]
      }
    },
    {
      "type": "Feature",
      "properties": {
        "norad_id": 34387,
        "name": "COSMOS 2251 DEB",
        "group": "cosmos-2251-debris",
        "lat": -4.296394437870794,
        "lon": -173.88326239195547,
        "alt_km": 741.1070388999624,
        "timestamp": "2025-12-25T22:42:17.407252+00:00",
        "meta_object_name": "COSMOS 2251 DEB",
        "meta_object_id": "1993-036QC",
        "meta_epoch": "2025-12-25T14:43:00.054912",
        "meta_mean_motion": 14.43847706,
        "meta_eccentricity": 0.0038885,
        "meta_inclination": 74.0385,
        "meta_ra_of_asc_node": 187.9673,
        "meta_arg_of_pericenter": 282.6327,
        "meta_mean_anomaly": 143.236,
        "meta_ephemeris_type": 0,
        "meta_classification_type": "U",
        "meta_norad_cat_id": 34387,
        "meta_element_set_no": 999,
        "meta_rev_at_epoch": 88367,
        "meta_bstar": 0.00031273,
        "meta_mean_motion_dot": 1.048e-05,
        "meta_mean_motion_ddot": 0,
        "tle_line1": "1 34387U 93036QC  25359.61319508  .00001048  00000+0  31273-3 0  9994",
        "tle_line2": "2 34387  74.0385 187.9673 0038885 282.6327 143.2360 14.43847706883672"
      },
      "geometry": {
        "type": "Point",
        "coordinates": [
          -173.88326239195547,
          -4.296394437870794
        ]
      }
    },
    {
      "type": "Feature",
      "properties": {
        "norad_id": 34388,
        "name": "COSMOS 2251 DEB",
        "group": "cosmos-2251-debris",
        "lat": -58.05319443516148,
        "lon": 45.65742005777684,
        "alt_km": 724.6268994495176,
        "timestamp": "2025-12-25T22:42:17.407325+00:00",
        "meta_object_name": "COSMOS 2251 DEB",
        "meta_object_id": "1993-036QD",
        "meta_epoch": "2025-12-25T15:16:58.440000",
        "meta_mean_motion": 14.49424422,
        "meta_eccentricity": 0.0013605,
        "meta_inclination": 74.0379,
        "meta_ra_of_asc_node": 198.9153,
        "meta_arg_of_pericenter": 246.3922,
        "meta_mean_anomaly": 182.544,
        "meta_ephemeris_type": 0,
        "meta_classification_type": "U",
        "meta_norad_cat_id": 34388,
        "meta_element_set_no": 999,
        "meta_rev_at_epoch": 88342,
        "meta_bstar": 0.00064722,
        "meta_mean_motion_dot": 2.453e-05,
        "meta_mean_motion_ddot": 0,
        "tle_line1": "1 34388U 93036QD  25359.63678750  .00002453  00000+0  64722-3 0  9990",
        "tle_line2": "2 34388  74.0379 198.9153 0013605 246.3922 182.5440 14.49424422883422"
      },
      "geometry": {
        "type": "Point",
        "coordinates": [
          45.65742005777684,
          -58.05319443516148
        ]
      }
    },
    {
      "type": "Feature",
      "properties": {
        "norad_id": 34389,
        "name": "COSMOS 2251 DEB",
        "group": "cosmos-2251-debris",
        "lat": -65.62287552532831,
        "lon": 84.56004423737309,
        "alt_km": 757.7965646845078,
        "timestamp": "2025-12-25T22:42:17.407338+00:00",
        "meta_object_name": "COSMOS 2251 DEB",
        "meta_object_id": "1993-036QE",
        "meta_epoch": "2025-12-24T19:14:40.362720",
        "meta_mean_motion": 14.4155901,
        "meta_eccentricity": 0.00294225,
        "meta_inclination": 74.0174,
        "meta_ra_of_asc_node": 227.4475,
        "meta_arg_of_pericenter": 337.2443,
        "meta_mean_anomaly": 98.9537,
        "meta_ephemeris_type": 0,
        "meta_classification_type": "U",
        "meta_norad_cat_id": 34389,
        "meta_element_set_no": 999,
        "meta_rev_at_epoch": 88186,
        "meta_bstar": 0.00028914905,
        "meta_mean_motion_dot": 9.18e-06,
        "meta_mean_motion_ddot": 0,
        "tle_line1": "1 34389U 93036QE  25358.80185605  .00000918  00000+0  28915-3 0  9999",
        "tle_line2": "2 34389  74.0174 227.4475 0029422 337.2443  98.9537 14.41559010881860"
      },
      "geometry": {
        "type": "Point",
        "coordinates": [
          84.56004423737309,
          -65.62287552532831
        ]
      }
    }
  ]
}